{"type": "FeatureCollection", "features": [{"type": "Feature", "properties": {"norad_id": 26766, "name": "INTELSAT 10 (IS-10)", "group": "intelsat", "lat": 4.385390678351187, "lon": -149.3385353413339, "alt_km": 36111.77276932066, "timestamp": "2025-12-04T21:36:15.541854+00:00", "meta": {"OBJECT_NAME": "INTELSAT 10 (IS-10)", "OBJECT_ID": "2001-019A", "EPOCH": "2025-12-03T11:53:38.525856", "MEAN_MOTION": 0.99078102, "ECCENTRICITY": 0.00077711, "INCLINATION": 8.6063, "RA_OF_ASC_NODE": 61.2471, "ARG_OF_PERICENTER": 218.7876, "MEAN_ANOMALY": 149.4282, "EPHEMERIS_TYPE": 0, "CLASSIFICATION_TYPE": "U", "NORAD_CAT_ID": 26766, "ELEMENT_SET_NO": 999, "REV_AT_EPOCH": 4364, "BSTAR": 0, "MEAN_MOTION_DOT": -1.56e-06, "MEAN_MOTION_DDOT": 0}, "tle": {"line1": "1 26766U 01019A   25337.49558479 -.00000156  00000+0  00000+0 0  9990", "line2": "2 26766   8.6063  61.2471 0007771 218.7876 149.4282  0.99078102 43647"}}, "geometry": {"type": "Point", "coordinates": [-149.3385353413339, 4.385390678351187]}}, {"type": "Feature", "properties": {"norad_id": 26900, "name": "INTELSAT 902 (IS-902)", "group": "intelsat", "lat": -5.609695796266503, "lon": -12.05131681221303, "alt_km": 35790.27397393423, "timestamp": "2025-12-04T21:36:15.541878+00:00", "meta": {"OBJECT_NAME": "INTELSAT 902 (IS-902)", "OBJECT_ID": "2001-039A", "EPOCH": "2025-12-01T16:59:59.311968", "MEAN_MOTION": 1.00270327, "ECCENTRICITY": 0.00043097, "INCLINATION": 5.6187, "RA_OF_ASC_NODE": 74.2002, "ARG_OF_PERICENTER": 175.119, "MEAN_ANOMALY": 26.3816, "EPHEMERIS_TYPE": 0, "CLASSIFICATION_TYPE": "U", "NORAD_CAT_ID": 26900, "ELEMENT_SET_NO": 999, "REV_AT_EPOCH": 8871, "BSTAR": 0, "MEAN_MOTION_DOT": -2.63e-06, "MEAN_MOTION_DDOT": 0}, "tle": {"line1": "1 26900U 01039A   25335.70832537 -.00000263  00000+0  00000+0 0  9993", "line2": "2 26900   5.6187  74.2002 0004309 175.1190  26.3816  1.00270327 88713"}}, "geometry": {"type": "Point", "coordinates": [-12.05131681221303, -5.609695796266503]}}, {"type": "Feature", "properties": {"norad_id": 27380, "name": "INTELSAT 904 (IS-904)", "group": "intelsat", "lat": -5.816564884753372, "lon": 6.671593960660325, "alt_km": 35787.58850082607, "timestamp": "2025-12-04T21:36:15.541894+00:00", "meta": {"OBJECT_NAME": "INTELSAT 904 (IS-904)", "OBJECT_ID": "2002-007A", "EPOCH": "2025-12-04T11:51:49.344768", "MEAN_MOTION": 1.0026902, "ECCENTRICITY": 0.0001665, "INCLINATION": 6.4331, "RA_OF_ASC_NODE": 71.5255, "ARG_OF_PERICENTER": 205.7795, "MEAN_ANOMALY": 302.7127, "EPHEMERIS_TYPE": 0, "CLASSIFICATION_TYPE": "U", "NORAD_CAT_ID": 27380, "ELEMENT_SET_NO": 999, "REV_AT_EPOCH": 4981, "BSTAR": 0, "MEAN_MOTION_DOT": -2.15e-06, "MEAN_MOTION_DDOT": 0}, "tle": {"line1": "1 27380U 02007A   25338.49432112 -.00000215  00000+0  00000+0 0  9993", "line2": "2 27380   6.4331  71.5255 0001665 205.7795 302.7127  1.00269020 49811"}}, "geometry": {"type": "Point", "coordinates": [6.671593960660325, -5.816564884753372]}}, {"type": "Feature", "properties": {"norad_id": 27426, "name": "DIRECTV 5 (TEMPO 1)", "group": "intelsat", "lat": -2.2197274844162154, "lon": -72.16290477165127, "alt_km": 35771.15429247531, "timestamp": "2025-12-04T21:36:15.541907+00:00", "meta": {"OBJECT_NAME": "DIRECTV 5 (TEMPO 1)", "OBJECT_ID": "2002-023A", "EPOCH": "2025-12-04T09:56:32.682624", "MEAN_MOTION": 1.00271251, "ECCENTRICITY": 0.00038386, "INCLINATION": 4.3795, "RA_OF_ASC_NODE": 77.7499, "ARG_OF_PERICENTER": 191.2769, "MEAN_ANOMALY": 203.4731, "EPHEMERIS_TYPE": 0, "CLASSIFICATION_TYPE": "U", "NORAD_CAT_ID": 27426, "ELEMENT_SET_NO": 999, "REV_AT_EPOCH": 8617, "BSTAR": 0, "MEAN_MOTION_DOT": -4.4e-07, "MEAN_MOTION_DDOT": 0}, "tle": {"line1": "1 27426U 02023A   25338.41426716 -.00000044  00000+0  00000+0 0  9997", "line2": "2 27426   4.3795  77.7499 0003838 191.2769 203.4731  1.00271251 86172"}}, "geometry": {"type": "Point", "coordinates": [-72.16290477165127, -2.2197274844162154]}}, {"type": "Feature", "properties": {"norad_id": 27438, "name": "INTELSAT 905 (IS-905)", "group": "intelsat", "lat": -0.9721522184925186, "lon": -99.20481774749756, "alt_km": 35772.385883758965, "timestamp": "2025-12-04T21:36:15.541919+00:00", "meta": {"OBJECT_NAME": "INTELSAT 905 (IS-905)", "OBJECT_ID": "2002-027A", "EPOCH": "2025-12-03T09:40:44.149728", "MEAN_MOTION": 1.00273288, "ECCENTRICITY": 0.00031296, "INCLINATION": 6.2606, "RA_OF_ASC_NODE": 72.1621, "ARG_OF_PERICENTER": 189.1417, "MEAN_ANOMALY": 179.1858, "EPHEMERIS_TYPE": 0, "CLASSIFICATION_TYPE": "U", "NORAD_CAT_ID": 27438, "ELEMENT_SET_NO": 999, "REV_AT_EPOCH": 4940, "BSTAR": 0, "MEAN_MOTION_DOT": 1.09e-06, "MEAN_MOTION_DDOT": 0}, "tle": {"line1": "1 27438U 02027A   25337.40328877  .00000109  00000+0  00000+0 0  9992", "line2": "2 27438   6.2606  72.1621 0003129 189.1417 179.1858  1.00273288 49408"}}, "geometry": {"type": "Point", "coordinates": [-99.20481774749756, -0.9721522184925186]}}, {"type": "Feature", "properties": {"norad_id": 27445, "name": "GALAXY 3C (G-3C)", "group": "intelsat", "lat": -2.2075151868689096, "lon": -56.87585470788931, "alt_km": 35789.59904984034, "timestamp": "2025-12-04T21:36:15.541932+00:00", "meta": {"OBJECT_NAME": "GALAXY 3C (G-3C)", "OBJECT_ID": "2002-030A", "EPOCH": "2025-12-04T13:16:29.706240", "MEAN_MOTION": 1.00270508, "ECCENTRICITY": 0.00012858, "INCLINATION": 3.2425, "RA_OF_ASC_NODE": 80.5894, "ARG_OF_PERICENTER": 100.4367, "MEAN_ANOMALY": 356.8628, "EPHEMERIS_TYPE": 0, "CLASSIFICATION_TYPE": "U", "NORAD_CAT_ID": 27445, "ELEMENT_SET_NO": 999, "REV_AT_EPOCH": 4454, "BSTAR": 0, "MEAN_MOTION_DOT": -1.39e-06, "MEAN_MOTION_DDOT": 0}, "tle": {"line1": "1 27445U 02030A   25338.55312160 -.00000139  00000+0  00000+0 0  9993", "line2": "2 27445   3.2425  80.5894 0001285 100.4367 356.8628  1.00270508 44549"}}, "geometry": {"type": "Point", "coordinates": [-56.87585470788931, -2.2075151868689096]}}, {"type": "Feature", "properties": {"norad_id": 27513, "name": "INTELSAT 906 (IS-906)", "group": "intelsat", "lat": 2.415194964795816, "lon": 102.04910141814797, "alt_km": 35810.44975819955, "timestamp": "2025-12-04T21:36:15.541944+00:00", "meta": {"OBJECT_NAME": "INTELSAT 906 (IS-906)", "OBJECT_ID": "2002-041A", "EPOCH": "2025-12-04T05:28:17.651712", "MEAN_MOTION": 1.002733, "ECCENTRICITY": 0.00061181, "INCLINATION": 5.3074, "RA_OF_ASC_NODE": 75.3323, "ARG_OF_PERICENTER": 192.8955, "MEAN_ANOMALY": 311.2929, "EPHEMERIS_TYPE": 0, "CLASSIFICATION_TYPE": "U", "NORAD_CAT_ID": 27513, "ELEMENT_SET_NO": 999, "REV_AT_EPOCH": 8507, "BSTAR": 0, "MEAN_MOTION_DOT": 2.5e-07, "MEAN_MOTION_DDOT": 0}, "tle": {"line1": "1 27513U 02041A   25338.22798208  .00000025  00000+0  00000+0 0  9999", "line2": "2 27513   5.3074  75.3323 0006118 192.8955 311.2929  1.00273300 85070"}}, "geometry": {"type": "Point", "coordinates": [102.04910141814797, 2.415194964795816]}}, {"type": "Feature", "properties": {"norad_id": 27954, "name": "GALAXY 13 (HORIZONS-1)", "group": "intelsat", "lat": 0.26415218238256594, "lon": -111.98170770934647, "alt_km": 35776.89199060095, "timestamp": "2025-12-04T21:36:15.541957+00:00", "meta": {"OBJECT_NAME": "GALAXY 13 (HORIZONS-1)", "OBJECT_ID": "2003-044A", "EPOCH": "2025-12-04T09:35:17.454048", "MEAN_MOTION": 1.0027297, "ECCENTRICITY": 0.00020681, "INCLINATION": 0.914, "RA_OF_ASC_NODE": 86.5762, "ARG_OF_PERICENTER": 162.731, "MEAN_ANOMALY": 177.9893, "EPHEMERIS_TYPE": 0, "CLASSIFICATION_TYPE": "U", "NORAD_CAT_ID": 27954, "ELEMENT_SET_NO": 999, "REV_AT_EPOCH": 4461, "BSTAR": 0, "MEAN_MOTION_DOT": 1.47e-06, "MEAN_MOTION_DDOT": 0}, "tle": {"line1": "1 27954U 03044A   25338.39950757  .00000147  00000+0  00000+0 0  9994", "line2": "2 27954   0.9140  86.5762 0002068 162.7310 177.9893  1.00272970 44610"}}, "geometry": {"type": "Point", "coordinates": [-111.98170770934647, 0.26415218238256594]}}, {"type": "Feature", "properties": {"norad_id": 28358, "name": "INTELSAT 10-02", "group": "intelsat", "lat": 0.005439327104955223, "lon": 37.02827050542278, "alt_km": 35788.63481610352, "timestamp": "2025-12-04T21:36:15.541969+00:00", "meta": {"OBJECT_NAME": "INTELSAT 10-02", "OBJECT_ID": "2004-022A", "EPOCH": "2025-12-04T13:43:19.636320", "MEAN_MOTION": 1.00270533, "ECCENTRICITY": 0.00011059, "INCLINATION": 0.0398, "RA_OF_ASC_NODE": 80.5364, "ARG_OF_PERICENTER": 198.4506, "MEAN_ANOMALY": 359.4943, "EPHEMERIS_TYPE": 0, "CLASSIFICATION_TYPE": "U", "NORAD_CAT_ID": 28358, "ELEMENT_SET_NO": 999, "REV_AT_EPOCH": 7860, "BSTAR": 0, "MEAN_MOTION_DOT": 4e-08, "MEAN_MOTION_DDOT": 0}, "tle": {"line1": "1 28358U 04022A   25338.57175505  .00000004  00000+0  00000+0 0  9992", "line2": "2 28358   0.0398  80.5364 0001105 198.4506 359.4943  1.00270533 78603"}}, "geometry": {"type": "Point", "coordinates": [37.02827050542278, 0.005439327104955223]}}, {"type": "Feature", "properties": {"norad_id": 28626, "name": "XM-3 (RHYTHM)", "group": "intelsat", "lat": 0.12310794013326493, "lon": -170.48481475333074, "alt_km": 36163.090633725486, "timestamp": "2025-12-04T21:36:15.541980+00:00", "meta": {"OBJECT_NAME": "XM-3 (RHYTHM)", "OBJECT_ID": "2005-008A", "EPOCH": "2025-12-04T12:44:32.765856", "MEAN_MOTION": 0.98954878, "ECCENTRICITY": 0.00010018, "INCLINATION": 0.1521, "RA_OF_ASC_NODE": 80.9228, "ARG_OF_PERICENTER": 260.4132, "MEAN_ANOMALY": 76.6625, "EPHEMERIS_TYPE": 0, "CLASSIFICATION_TYPE": "U", "NORAD_CAT_ID": 28626, "ELEMENT_SET_NO": 999, "REV_AT_EPOCH": 4066, "BSTAR": 0, "MEAN_MOTION_DOT": -2.56e-06, "MEAN_MOTION_DDOT": 0}, "tle": {"line1": "1 28626U 05008A   25338.53093479 -.00000256  00000+0  00000+0 0  9990", "line2": "2 28626   0.1521  80.9228 0001001 260.4132  76.6625  0.98954878 40660"}}, "geometry": {"type": "Point", "coordinates": [-170.48481475333074, 0.12310794013326493]}}]}